CCSDS_OMM_VERS = 2.0
CREATION_DATE  = 
ORIGINATOR     = 

OBJECT_NAME    = SZ-21 MODULE
OBJECT_ID      = 2025-246C
CENTER_NAME    = EARTH
REF_FRAME      = TEME
TIME_SYSTEM    = UTC
MEAN_ELEMENT_THEORY = SGP/SGP4

EPOCH          = 2025-11-25T18:52:26.324256
MEAN_MOTION    = 15.61328484
ECCENTRICITY   = .0004875
INCLINATION    = 41.4757
RA_OF_ASC_NODE = 119.3718
ARG_OF_PERICENTER = 149.9191
MEAN_ANOMALY   = 210.1929

EPHEMERIS_TYPE = 0
CLASSIFICATION_TYPE = U
NORAD_CAT_ID   = 66515
ELEMENT_SET_NO = 999
REV_AT_EPOCH   = 179
BSTAR          = .34794E-3
MEAN_MOTION_DOT = .30245E-3
MEAN_MOTION_DDOT = 0

CCSDS_OMM_VERS = 2.0
CREATION_DATE  = 
ORIGINATOR     = 

OBJECT_NAME    = SHENZHOU-22
OBJECT_ID      = 2025-272A
CENTER_NAME    = EARTH
REF_FRAME      = TEME
TIME_SYSTEM    = UTC
MEAN_ELEMENT_THEORY = SGP/SGP4

EPOCH          = 2025-11-24T13:57:13.070592
MEAN_MOTION    = 15.58193834
ECCENTRICITY   = .0010743
INCLINATION    = 41.4653
RA_OF_ASC_NODE = 126.8581
ARG_OF_PERICENTER = 261.2431
MEAN_ANOMALY   = 98.7190

EPHEMERIS_TYPE = 0
CLASSIFICATION_TYPE = U
NORAD_CAT_ID   = 66645
ELEMENT_SET_NO = 999
REV_AT_EPOCH   = 26119
BSTAR          = .27858E-3
MEAN_MOTION_DOT = .21413E-3
MEAN_MOTION_DDOT = 0

CCSDS_OMM_VERS = 2.0
CREATION_DATE  = 
ORIGINATOR     = 

OBJECT_NAME    = CZ-2F R/B
OBJECT_ID      = 2025-272B
CENTER_NAME    = EARTH
REF_FRAME      = TEME
TIME_SYSTEM    = UTC
MEAN_ELEMENT_THEORY = SGP/SGP4

EPOCH          = 2025-11-25T20:19:51.942144
MEAN_MOTION    = 16.00754081
ECCENTRICITY   = .0113196
INCLINATION    = 41.4660
RA_OF_ASC_NODE = 118.9667
ARG_OF_PERICENTER = 129.6659
MEAN_ANOMALY   = 231.4244

EPHEMERIS_TYPE = 0
CLASSIFICATION_TYPE = U
NORAD_CAT_ID   = 66646
ELEMENT_SET_NO = 999
REV_AT_EPOCH   = 11
BSTAR          = .31875E-3
MEAN_MOTION_DOT = .391175E-2
MEAN_MOTION_DDOT = .75674E-5

